{
  "type": "FeatureCollection",
  "features": [
    {
      "type": "Feature",
      "properties": {
        "norad_id": 41026,
        "name": "YAOGAN-28",
        "group": "resource",
        "lat": -50.78651501913322,
        "lon": 148.1127242442826,
        "alt_km": 504.52326564431223,
        "timestamp": "2025-12-27T17:24:57.050781+00:00",
        "meta_object_name": "YAOGAN-28",
        "meta_object_id": "2015-064A",
        "meta_epoch": "2025-12-27T12:54:55.010880",
        "meta_mean_motion": 15.24591011,
        "meta_eccentricity": 0.0012625,
        "meta_inclination": 97.2813,
        "meta_ra_of_asc_node": 138.9152,
        "meta_arg_of_pericenter": 79.1478,
        "meta_mean_anomaly": 281.118,
        "meta_ephemeris_type": 0,
        "meta_classification_type": "U",
        "meta_norad_cat_id": 41026,
        "meta_element_set_no": 999,
        "meta_rev_at_epoch": 56450,
        "meta_bstar": 0.00038722,
        "meta_mean_motion_dot": 9.5e-05,
        "meta_mean_motion_ddot": 0,
        "tle_line1": "1 41026U 15064A   25361.53813670  .00009500  00000+0  38722-3 0  9997",
        "tle_line2": "2 41026  97.2813 138.9152 0012625  79.1478 281.1180 15.24591011564506"
      },
      "geometry": {
        "type": "Point",
        "coordinates": [
          148.1127242442826,
          -50.78651501913322
        ]
      }
    },
    {
      "type": "Feature",
      "properties": {
        "norad_id": 41038,
        "name": "YAOGAN-29",
        "group": "resource",
        "lat": -33.49791425522181,
        "lon": 30.299238192338496,
        "alt_km": 627.0683399105019,
        "timestamp": "2025-12-27T17:24:57.050791+00:00",
        "meta_object_name": "YAOGAN-29",
        "meta_object_id": "2015-069A",
        "meta_epoch": "2025-12-27T12:42:36.034272",
        "meta_mean_motion": 14.82898379,
        "meta_eccentricity": 9.94e-05,
        "meta_inclination": 98.0209,
        "meta_ra_of_asc_node": 24.7477,
        "meta_arg_of_pericenter": 157.714,
        "meta_mean_anomaly": 202.4117,
        "meta_ephemeris_type": 0,
        "meta_classification_type": "U",
        "meta_norad_cat_id": 41038,
        "meta_element_set_no": 999,
        "meta_rev_at_epoch": 54518,
        "meta_bstar": 4.3343e-05,
        "meta_mean_motion_dot": 2.97e-06,
        "meta_mean_motion_ddot": 0,
        "tle_line1": "1 41038U 15069A   25361.52958373  .00000297  00000+0  43343-4 0  9994",
        "tle_line2": "2 41038  98.0209  24.7477 0000994 157.7140 202.4117 14.82898379545183"
      },
      "geometry": {
        "type": "Point",
        "coordinates": [
          30.299238192338496,
          -33.49791425522181
        ]
      }
    },
    {
      "type": "Feature",
      "properties": {
        "norad_id": 41167,
        "name": "KENT RIDGE 1",
        "group": "resource",
        "lat": 9.928818547546383,
        "lon": 140.82768950075268,
        "alt_km": 493.4379927175496,
        "timestamp": "2025-12-27T17:24:57.050802+00:00",
        "meta_object_name": "KENT RIDGE 1",
        "meta_object_id": "2015-077B",
        "meta_epoch": "2025-12-27T12:30:49.811904",
        "meta_mean_motion": 15.21749298,
        "meta_eccentricity": 0.0008544,
        "meta_inclination": 14.9792,
        "meta_ra_of_asc_node": 101.4456,
        "meta_arg_of_pericenter": 339.4208,
        "meta_mean_anomaly": 20.5769,
        "meta_ephemeris_type": 0,
        "meta_classification_type": "U",
        "meta_norad_cat_id": 41167,
        "meta_element_set_no": 999,
        "meta_rev_at_epoch": 55489,
        "meta_bstar": 0.000192,
        "meta_mean_motion_dot": 5.243e-05,
        "meta_mean_motion_ddot": 0,
        "tle_line1": "1 41167U 15077B   25361.52140986  .00005243  00000+0  19200-3 0  9999",
        "tle_line2": "2 41167  14.9792 101.4456 0008544 339.4208  20.5769 15.21749298554892"
      },
      "geometry": {
        "type": "Point",
        "coordinates": [
          140.82768950075268,
          9.928818547546383
        ]
      }
    },
    {
      "type": "Feature",
      "properties": {
        "norad_id": 41194,
        "name": "GAOFEN-4",
        "group": "resource",
        "lat": 0.09283962111793331,
        "lon": 103.3391240705386,
        "alt_km": 35783.64373524357,
        "timestamp": "2025-12-27T17:24:57.050814+00:00",
        "meta_object_name": "GAOFEN-4",
        "meta_object_id": "2015-083A",
        "meta_epoch": "2025-12-27T11:47:34.763712",
        "meta_mean_motion": 1.0026861,
        "meta_eccentricity": 0.0002827,
        "meta_inclination": 0.2056,
        "meta_ra_of_asc_node": 82.0736,
        "meta_arg_of_pericenter": 94.927,
        "meta_mean_anomaly": 201.8058,
        "meta_ephemeris_type": 0,
        "meta_classification_type": "U",
        "meta_norad_cat_id": 41194,
        "meta_element_set_no": 999,
        "meta_rev_at_epoch": 3680,
        "meta_bstar": 0,
        "meta_mean_motion_dot": -3.12e-06,
        "meta_mean_motion_ddot": 0,
        "tle_line1": "1 41194U 15083A   25361.49137458 -.00000312  00000+0  00000+0 0  9999",
        "tle_line2": "2 41194   0.2056  82.0736 0002827  94.9270 201.8058  1.00268610 36805"
      },
      "geometry": {
        "type": "Point",
        "coordinates": [
          103.3391240705386,
          0.09283962111793331
        ]
      }
    },
    {
      "type": "Feature",
      "properties": {
        "norad_id": 41240,
        "name": "JASON-3",
        "group": "resource",
        "lat": -58.42542285705335,
        "lon": 79.978778512208,
        "alt_km": 1311.852291436453,
        "timestamp": "2025-12-27T17:24:57.050825+00:00",
        "meta_object_name": "JASON-3",
        "meta_object_id": "2016-002A",
        "meta_epoch": "2025-12-27T12:10:47.764128",
        "meta_mean_motion": 12.87627225,
        "meta_eccentricity": 0.0007343,
        "meta_inclination": 66.0409,
        "meta_ra_of_asc_node": 126.7767,
        "meta_arg_of_pericenter": 271.7019,
        "meta_mean_anomaly": 88.3158,
        "meta_ephemeris_type": 0,
        "meta_classification_type": "U",
        "meta_norad_cat_id": 41240,
        "meta_element_set_no": 999,
        "meta_rev_at_epoch": 46514,
        "meta_bstar": 0.0001643,
        "meta_mean_motion_dot": -2.1e-07,
        "meta_mean_motion_ddot": 0,
        "tle_line1": "1 41240U 16002A   25361.50749727 -.00000021  00000+0  16430-3 0  9998",
        "tle_line2": "2 41240  66.0409 126.7767 0007343 271.7019  88.3158 12.87627225465143"
      },
      "geometry": {
        "type": "Point",
        "coordinates": [
          79.978778512208,
          -58.42542285705335
        ]
      }
    },
    {
      "type": "Feature",
      "properties": {
        "norad_id": 41335,
        "name": "SENTINEL-3A",
        "group": "resource",
        "lat": -59.66399653459588,
        "lon": -128.51171237338957,
        "alt_km": 810.2784712996481,
        "timestamp": "2025-12-27T17:24:57.050835+00:00",
        "meta_object_name": "SENTINEL-3A",
        "meta_object_id": "2016-011A",
        "meta_epoch": "2025-12-27T11:14:29.652000",
        "meta_mean_motion": 14.26736393,
        "meta_eccentricity": 8.93e-05,
        "meta_inclination": 98.6295,
        "meta_ra_of_asc_node": 66.2752,
        "meta_arg_of_pericenter": 98.3614,
        "meta_mean_anomaly": 261.7668,
        "meta_ephemeris_type": 0,
        "meta_classification_type": "U",
        "meta_norad_cat_id": 41335,
        "meta_element_set_no": 999,
        "meta_rev_at_epoch": 51357,
        "meta_bstar": 7.9716e-05,
        "meta_mean_motion_dot": 1.49e-06,
        "meta_mean_motion_ddot": 0,
        "tle_line1": "1 41335U 16011A   25361.46839875  .00000149  00000+0  79716-4 0  9999",
        "tle_line2": "2 41335  98.6295  66.2752 0000893  98.3614 261.7668 14.26736393513577"
      },
      "geometry": {
        "type": "Point",
        "coordinates": [
          -128.51171237338957,
          -59.66399653459588
        ]
      }
    },
    {
      "type": "Feature",
      "properties": {
        "norad_id": 41556,
        "name": "ZIYUAN 3-02 (ZY 3-02)",
        "group": "resource",
        "lat": 42.79727804492257,
        "lon": 68.72713107051813,
        "alt_km": 505.2773828713998,
        "timestamp": "2025-12-27T17:24:57.050845+00:00",
        "meta_object_name": "ZIYUAN 3-02 (ZY 3-02)",
        "meta_object_id": "2016-033A",
        "meta_epoch": "2025-12-27T12:29:24.141984",
        "meta_mean_motion": 15.21268102,
        "meta_eccentricity": 0.0011641,
        "meta_inclination": 97.4022,
        "meta_ra_of_asc_node": 75.4392,
        "meta_arg_of_pericenter": 191.3349,
        "meta_mean_anomaly": 168.7626,
        "meta_ephemeris_type": 0,
        "meta_classification_type": "U",
        "meta_norad_cat_id": 41556,
        "meta_element_set_no": 999,
        "meta_rev_at_epoch": 53188,
        "meta_bstar": 0.00035209,
        "meta_mean_motion_dot": 7.815e-05,
        "meta_mean_motion_ddot": 0,
        "tle_line1": "1 41556U 16033A   25361.52041831  .00007815  00000+0  35209-3 0  9997",
        "tle_line2": "2 41556  97.4022  75.4392 0011641 191.3349 168.7626 15.21268102531889"
      },
      "geometry": {
        "type": "Point",
        "coordinates": [
          68.72713107051813,
          42.79727804492257
        ]
      }
    }
  ]
}